start=new Date('2022-03-25T00:00:00.000Z').valueOf();
sats=[{"REF_FRAME":"TEME","OBJECT_ID":"2020-055L","MEAN_ELEMENT_THEORY":"SGP4","BSTAR":"0.00043539000000","TIME_SYSTEM":"UTC","DECAY_DATE":null,"NORAD_CAT_ID":"46037","MEAN_ANOMALY":"294.5203","SITE":"AFETR","APOAPSIS":"548.220","ELEMENT_SET_NO":"999","TLE_LINE1":"1 46037U 20055L   22083.49903125  .00006210  00000-0  43539-3 0  9996","TLE_LINE2":"2 46037  53.0537 138.8356 0001463  65.5938 294.5203 15.06402344 90912","EPOCH":"2022-03-24T11:58:36.300000","MEAN_MOTION_DDOT":"0.0000000000000","REV_AT_EPOCH":"9091","GP_ID":"199572673","FILE":"3372185","SEMIMAJOR_AXIS":"6925.341","CENTER_NAME":"EARTH","MEAN_MOTION_DOT":"0.00006210","RCS_SIZE":"LARGE","OBJECT_NAME":"STARLINK-1565","MEAN_MOTION":"15.06402344","INCLINATION":"53.0537","ARG_OF_PERICENTER":"65.5938","COUNTRY_CODE":"US","EPHEMERIS_TYPE":"0","LAUNCH_DATE":"2020-08-07","CLASSIFICATION_TYPE":"U","PERIOD":"95.592","RA_OF_ASC_NODE":"138.8356","ECCENTRICITY":"0.00014630","OBJECT_TYPE":"PAYLOAD","PERIAPSIS":"546.193"},{"RCS_SIZE":"LARGE","MEAN_MOTION_DOT":"0.00001759","OBJECT_NAME":"STARLINK-1567","CENTER_NAME":"EARTH","SEMIMAJOR_AXIS":"6925.345","CLASSIFICATION_TYPE":"U","PERIAPSIS":"546.153","OBJECT_TYPE":"PAYLOAD","ECCENTRICITY":"0.00015260","PERIOD":"95.592","RA_OF_ASC_NODE":"137.2775","ARG_OF_PERICENTER":"67.4258","INCLINATION":"53.0546","MEAN_MOTION":"15.06401195","LAUNCH_DATE":"2020-08-07","EPHEMERIS_TYPE":"0","COUNTRY_CODE":"US","MEAN_ANOMALY":"292.6892","NORAD_CAT_ID":"46038","SITE":"AFETR","APOAPSIS":"548.267","BSTAR":"0.00013695000000","OBJECT_ID":"2020-055M","MEAN_ELEMENT_THEORY":"SGP4","REF_FRAME":"TEME","DECAY_DATE":null,"TIME_SYSTEM":"UTC","REV_AT_EPOCH":"9096","MEAN_MOTION_DDOT":"0.0000000000000","FILE":"3373054","GP_ID":"199619202","ELEMENT_SET_NO":"999","EPOCH":"2022-03-24T20:17:31.069536","TLE_LINE2":"2 46038  53.0546 137.2775 0001526  67.4258 292.6892 15.06401195 90968","TLE_LINE1":"1 46038U 20055M   22083.84549849  .00001759  00000-0  13695-3 0  9998"},{"CENTER_NAME":"EARTH","SEMIMAJOR_AXIS":"6925.413","OBJECT_NAME":"STARLINK-1569","MEAN_MOTION_DOT":"0.00006546","RCS_SIZE":"LARGE","LAUNCH_DATE":"2020-08-07","COUNTRY_CODE":"US","EPHEMERIS_TYPE":"0","ARG_OF_PERICENTER":"67.4493","INCLINATION":"53.0543","MEAN_MOTION":"15.06378998","OBJECT_TYPE":"PAYLOAD","PERIAPSIS":"546.159","ECCENTRICITY":"0.00016150","PERIOD":"95.593","RA_OF_ASC_NODE":"137.2440","CLASSIFICATION_TYPE":"U","DECAY_DATE":null,"TIME_SYSTEM":"UTC","BSTAR":"0.00045820000000","OBJECT_ID":"2020-055N","MEAN_ELEMENT_THEORY":"SGP4","REF_FRAME":"TEME","SITE":"AFETR","APOAPSIS":"548.396","MEAN_ANOMALY":"292.6667","NORAD_CAT_ID":"46039","EPOCH":"2022-03-24T20:28:09.440256","TLE_LINE2":"2 46039  53.0543 137.2440 0001615  67.4493 292.6667 15.06378998 90969","TLE_LINE1":"1 46039U 20055N   22083.85288704  .00006546  00000-0  45820-3 0  9994","ELEMENT_SET_NO":"999","FILE":"3373054","GP_ID":"199618953","REV_AT_EPOCH":"9096","MEAN_MOTION_DDOT":"0.0000000000000"},{"MEAN_MOTION_DOT":"0.00002427","RCS_SIZE":"LARGE","OBJECT_NAME":"STARLINK-1576","SEMIMAJOR_AXIS":"6925.350","CENTER_NAME":"EARTH","CLASSIFICATION_TYPE":"U","RA_OF_ASC_NODE":"137.1060","PERIOD":"95.592","OBJECT_TYPE":"PAYLOAD","ECCENTRICITY":"0.00015260","PERIAPSIS":"546.158","MEAN_MOTION":"15.06399564","INCLINATION":"53.0527","ARG_OF_PERICENTER":"66.8810","EPHEMERIS_TYPE":"0","COUNTRY_CODE":"US","LAUNCH_DATE":"2020-08-07","NORAD_CAT_ID":"46040","MEAN_ANOMALY":"293.2340","APOAPSIS":"548.272","SITE":"AFETR","REF_FRAME":"TEME","OBJECT_ID":"2020-055P","MEAN_ELEMENT_THEORY":"SGP4","BSTAR":"0.00018177000000","TIME_SYSTEM":"UTC","DECAY_DATE":null,"MEAN_MOTION_DDOT":"0.0000000000000","REV_AT_EPOCH":"9093","GP_ID":"199617701","FILE":"3373054","ELEMENT_SET_NO":"999","TLE_LINE1":"1 46040U 20055P   22083.88235526  .00002427  00000-0  18177-3 0  9992","TLE_LINE2":"2 46040  53.0527 137.1060 0001526  66.8810 293.2340 15.06399564 90931","EPOCH":"2022-03-24T21:10:35.494464"},{"MEAN_MOTION_DOT":"0.00002327","RCS_SIZE":"LARGE","OBJECT_NAME":"STARLINK-1580","CENTER_NAME":"EARTH","SEMIMAJOR_AXIS":"6925.328","CLASSIFICATION_TYPE":"U","OBJECT_TYPE":"PAYLOAD","PERIAPSIS":"546.183","ECCENTRICITY":"0.00014590","PERIOD":"95.592","RA_OF_ASC_NODE":"137.0946","ARG_OF_PERICENTER":"66.0070","INCLINATION":"53.0519","MEAN_MOTION":"15.06406649","LAUNCH_DATE":"2020-08-07","COUNTRY_CODE":"US","EPHEMERIS_TYPE":"0","MEAN_ANOMALY":"294.1071","NORAD_CAT_ID":"46041","APOAPSIS":"548.204","SITE":"AFETR","BSTAR":"0.00017502000000","OBJECT_ID":"2020-055Q","MEAN_ELEMENT_THEORY":"SGP4","REF_FRAME":"TEME","DECAY_DATE":null,"TIME_SYSTEM":"UTC","REV_AT_EPOCH":"9094","MEAN_MOTION_DDOT":"0.0000000000000","FILE":"3373054","GP_ID":"199618451","ELEMENT_SET_NO":"999","EPOCH":"2022-03-24T21:14:31.940160","TLE_LINE2":"2 46041  53.0519 137.0946 0001459  66.0070 294.1071 15.06406649 90945","TLE_LINE1":"1 46041U 20055Q   22083.88509190  .00002327  00000-0  17502-3 0  9994"},{"CENTER_NAME":"EARTH","SEMIMAJOR_AXIS":"6925.337","RCS_SIZE":"LARGE","MEAN_MOTION_DOT":"0.00002913","OBJECT_NAME":"STARLINK-1581","ARG_OF_PERICENTER":"57.8486","MEAN_MOTION":"15.06403662","INCLINATION":"53.0515","LAUNCH_DATE":"2020-08-07","COUNTRY_CODE":"US","EPHEMERIS_TYPE":"0","CLASSIFICATION_TYPE":"U","PERIAPSIS":"546.128","OBJECT_TYPE":"PAYLOAD","ECCENTRICITY":"0.00015510","PERIOD":"95.592","RA_OF_ASC_NODE":"137.1706","OBJECT_ID":"2020-055R","MEAN_ELEMENT_THEORY":"SGP4","BSTAR":"0.00021436000000","REF_FRAME":"TEME","TIME_SYSTEM":"UTC","DECAY_DATE":null,"MEAN_ANOMALY":"302.2653","NORAD_CAT_ID":"46042","APOAPSIS":"548.276","SITE":"AFETR","ELEMENT_SET_NO":"999","EPOCH":"2022-03-24T20:49:21.434016","TLE_LINE1":"1 46042U 20055R   22083.86760919  .00002913  00000-0  21436-3 0  9993","TLE_LINE2":"2 46042  53.0515 137.1706 0001551  57.8486 302.2653 15.06403662 90937","REV_AT_EPOCH":"9093","MEAN_MOTION_DDOT":"0.0000000000000","FILE":"3373054","GP_ID":"199618703"},{"CLASSIFICATION_TYPE":"U","PERIAPSIS":"546.221","OBJECT_TYPE":"PAYLOAD","ECCENTRICITY":"0.00014380","RA_OF_ASC_NODE":"138.7027","PERIOD":"95.592","ARG_OF_PERICENTER":"67.3826","INCLINATION":"53.0548","MEAN_MOTION":"15.06398971","LAUNCH_DATE":"2020-08-07","COUNTRY_CODE":"US","EPHEMERIS_TYPE":"0","RCS_SIZE":"LARGE","MEAN_MOTION_DOT":"0.00001436","OBJECT_NAME":"STARLINK-1582","CENTER_NAME":"EARTH","SEMIMAJOR_AXIS":"6925.352","REV_AT_EPOCH":"9040","MEAN_MOTION_DDOT":"0.0000000000000","FILE":"3372557","GP_ID":"199587065","ELEMENT_SET_NO":"999","EPOCH":"2022-03-24T12:41:02.764608","TLE_LINE2":"2 46043  53.0548 138.7027 0001438  67.3826 292.7315 15.06398971 90401","TLE_LINE1":"1 46043U 20055S   22083.52850422  .00001436  00000-0  11527-3 0  9995","MEAN_ANOMALY":"292.7315","NORAD_CAT_ID":"46043","SITE":"AFETR","APOAPSIS":"548.213","BSTAR":"0.00011527000000","OBJECT_ID":"2020-055S","MEAN_ELEMENT_THEORY":"SGP4","REF_FRAME":"TEME","DECAY_DATE":null,"TIME_SYSTEM":"UTC"},{"SEMIMAJOR_AXIS":"6925.302","CENTER_NAME":"EARTH","OBJECT_NAME":"STARLINK-1584","RCS_SIZE":"LARGE","MEAN_MOTION_DOT":"0.00007694","COUNTRY_CODE":"US","EPHEMERIS_TYPE":"0","LAUNCH_DATE":"2020-08-07","INCLINATION":"53.0531","MEAN_MOTION":"15.06415069","ARG_OF_PERICENTER":"82.8564","PERIOD":"95.591","RA_OF_ASC_NODE":"137.1298","ECCENTRICITY":"0.00011110","OBJECT_TYPE":"PAYLOAD","PERIAPSIS":"546.398","CLASSIFICATION_TYPE":"U","DECAY_DATE":null,"TIME_SYSTEM":"UTC","REF_FRAME":"TEME","BSTAR":"0.00053465000000","OBJECT_ID":"2020-055T","MEAN_ELEMENT_THEORY":"SGP4","SITE":"AFETR","APOAPSIS":"547.937","NORAD_CAT_ID":"46044","MEAN_ANOMALY":"277.2551","TLE_LINE2":"2 46044  53.0531 137.1298 0001111  82.8564 277.2551 15.06415069 90976","TLE_LINE1":"1 46044U 20055T   22083.87497856  .00007694  00000-0  53465-3 0  9991","EPOCH":"2022-03-24T20:59:58.147584","ELEMENT_SET_NO":"999","GP_ID":"199618201","FILE":"3373054","MEAN_MOTION_DDOT":"0.0000000000000","REV_AT_EPOCH":"9097"},{"ARG_OF_PERICENTER":"60.3461","INCLINATION":"53.0530","MEAN_MOTION":"15.06399150","LAUNCH_DATE":"2020-08-07","EPHEMERIS_TYPE":"0","COUNTRY_CODE":"US","CLASSIFICATION_TYPE":"U","OBJECT_TYPE":"PAYLOAD","ECCENTRICITY":"0.00016660","PERIAPSIS":"546.062","RA_OF_ASC_NODE":"139.1656","PERIOD":"95.592","CENTER_NAME":"EARTH","SEMIMAJOR_AXIS":"6925.351","RCS_SIZE":"LARGE","MEAN_MOTION_DOT":"0.00001521","OBJECT_NAME":"STARLINK-1591","ELEMENT_SET_NO":"999","EPOCH":"2022-03-24T10:07:07.547232","TLE_LINE2":"2 46045  53.0530 139.1656 0001666  60.3461 299.7694 15.06399150 90393","TLE_LINE1":"1 46045U 20055U   22083.42161513  .00001521  00000-0  12099-3 0  9992","REV_AT_EPOCH":"9039","MEAN_MOTION_DDOT":"0.0000000000000","FILE":"3372559","GP_ID":"199586797","BSTAR":"0.00012099000000","OBJECT_ID":"2020-055U","MEAN_ELEMENT_THEORY":"SGP4","REF_FRAME":"TEME","DECAY_DATE":null,"TIME_SYSTEM":"UTC","MEAN_ANOMALY":"299.7694","NORAD_CAT_ID":"46045","SITE":"AFETR","APOAPSIS":"548.370"},{"BSTAR":"0.00057061000000","OBJECT_ID":"2020-055V","MEAN_ELEMENT_THEORY":"SGP4","REF_FRAME":"TEME","DECAY_DATE":null,"TIME_SYSTEM":"UTC","MEAN_ANOMALY":"344.1460","NORAD_CAT_ID":"46046","APOAPSIS":"375.731","SITE":"AFETR","ELEMENT_SET_NO":"999","EPOCH":"2022-03-24T09:04:10.345728","TLE_LINE2":"2 46046  53.0533  65.0215 0000903  15.9582 344.1460 15.64346447 91918","TLE_LINE1":"1 46046U 20055V   22083.37789752  .00055458  00000-0  57061-3 0  9994","REV_AT_EPOCH":"9191","MEAN_MOTION_DDOT":"0.0000000000000","FILE":"3372185","GP_ID":"199572420","CENTER_NAME":"EARTH","SEMIMAJOR_AXIS":"6753.256","RCS_SIZE":"LARGE","MEAN_MOTION_DOT":"0.00055458","OBJECT_NAME":"STARLINK-1514","ARG_OF_PERICENTER":"15.9582","INCLINATION":"53.0533","MEAN_MOTION":"15.64346447","LAUNCH_DATE":"2020-08-07","EPHEMERIS_TYPE":"0","COUNTRY_CODE":"US","CLASSIFICATION_TYPE":"U","OBJECT_TYPE":"PAYLOAD","ECCENTRICITY":"0.00009030","PERIAPSIS":"374.511","RA_OF_ASC_NODE":"65.0215","PERIOD":"92.051"}];
